[{"OBJECT_NAME":"STARLINK-1790","OBJECT_ID":"2020-073X","EPOCH":"2026-03-10T00:00:02.999808","MEAN_MOTION":15.73247405,"ECCENTRICITY":0.00030153,"INCLINATION":53.0418,"RA_OF_ASC_NODE":197.0184,"ARG_OF_PERICENTER":160.3471,"MEAN_ANOMALY":75.7637,"EPHEMERIS_TYPE":0,"CLASSIFICATION_TYPE":"U","NORAD_CAT_ID":46691,"ELEMENT_SET_NO":999,"REV_AT_EPOCH":596,"BSTAR":0.00070221254,"MEAN_MOTION_DOT":0.00099338,"MEAN_MOTION_DDOT":0},{"OBJECT_NAME":"STARLINK-11499 [DTC]","OBJECT_ID":"2024-237N","EPOCH":"2026-03-09T07:11:26.436192","MEAN_MOTION":15.71022436,"ECCENTRICITY":0.00040149,"INCLINATION":42.9992,"RA_OF_ASC_NODE":59.6075,"ARG_OF_PERICENTER":239.6496,"MEAN_ANOMALY":120.3975,"EPHEMERIS_TYPE":0,"CLASSIFICATION_TYPE":"U","NORAD_CAT_ID":62279,"ELEMENT_SET_NO":999,"REV_AT_EPOCH":7291,"BSTAR":0.001540867,"MEAN_MOTION_DOT":0.00203793,"MEAN_MOTION_DDOT":0}]
